{
    "links": {
        "self": "http://www.neowsapp.com/rest/v1/neo/3370499?api_key=iIulBulltgU6a56xZRHN4H3l9WmuAYTsLGpBGhQ2"
    },
    "id": "3370499",
    "neo_reference_id": "3370499",
    "name": "(2007 EH26)",
    "designation": "2007 EH26",
    "nasa_jpl_url": "http://ssd.jpl.nasa.gov/sbdb.cgi?sstr=3370499",
    "absolute_magnitude_h": 24.2,
    "estimated_diameter": {
        "kilometers": {
            "estimated_diameter_min": 0.0384197891,
            "estimated_diameter_max": 0.0859092601
        },
        "meters": {
            "estimated_diameter_min": 38.4197891064,
            "estimated_diameter_max": 85.9092601232
        },
        "miles": {
            "estimated_diameter_min": 0.0238729428,
            "estimated_diameter_max": 0.0533815229
        },
        "feet": {
            "estimated_diameter_min": 126.0491808919,
            "estimated_diameter_max": 281.8545369825
        }
    },
    "is_potentially_hazardous_asteroid": false,
    "close_approach_data": [
        {
            "close_approach_date": "2007-03-18",
            "close_approach_date_full": "2007-Mar-18 20:57",
            "epoch_date_close_approach": 1174251420000,
            "relative_velocity": {
                "kilometers_per_second": "21.1827313938",
                "kilometers_per_hour": "76257.8330177228",
                "miles_per_hour": "47383.6518548178"
            },
            "miss_distance": {
                "astronomical": "0.0335841594",
                "lunar": "13.0642380066",
                "kilometers": "5024118.711980478",
                "miles": "3121842.6058594764"
            },
            "orbiting_body": "Earth"
        }
    ],
    "orbital_data": {
        "orbit_id": "9",
        "orbit_determination_date": "2017-04-06 09:06:47",
        "first_observation_date": "2007-03-10",
        "last_observation_date": "2007-03-16",
        "data_arc_in_days": 6,
        "observations_used": 40,
        "orbit_uncertainty": "8",
        "minimum_orbit_intersection": ".00565411",
        "jupiter_tisserand_invariant": "3.614",
        "epoch_osculation": "2454171.5",
        "eccentricity": ".6720198074814542",
        "semi_major_axis": "1.913000982062069",
        "inclination": "5.651306868633331",
        "ascending_node_longitude": "356.4140690855424",
        "orbital_period": "966.4318101501757",
        "perihelion_distance": ".6274264303848848",
        "perihelion_argument": "268.788332979152",
        "aphelion_distance": "3.198575533739255",
        "perihelion_time": "2454225.426195349354",
        "mean_anomaly": "339.9122606252471",
        "mean_motion": ".3725042948907683",
        "equinox": "J2000",
        "orbit_class": {
            "orbit_class_type": "APO",
            "orbit_class_description": "Near-Earth asteroid orbits which cross the Earth’s orbit similar to that of 1862 Apollo",
            "orbit_class_range": "a (semi-major axis) > 1.0 AU; q (perihelion) < 1.017 AU"
        }
    },
    "is_sentry_object": false
}